{"type": "FeatureCollection", "features": [{"type": "Feature", "properties": {"norad_id": 28890, "name": "BEIJING 1", "group": "dmc", "lat": -21.04007770870862, "lon": 114.324711639057, "alt_km": 698.1891338480482, "timestamp": "2025-12-09T14:52:25.832565+00:00", "meta": {"OBJECT_NAME": "BEIJING 1", "OBJECT_ID": "2005-043A", "EPOCH": "2025-12-09T06:45:57.316896", "MEAN_MOTION": 14.63361561, "ECCENTRICITY": 0.0015133, "INCLINATION": 98.2657, "RA_OF_ASC_NODE": 110.7806, "ARG_OF_PERICENTER": 151.7147, "MEAN_ANOMALY": 208.488, "EPHEMERIS_TYPE": 0, "CLASSIFICATION_TYPE": "U", "NORAD_CAT_ID": 28890, "ELEMENT_SET_NO": 999, "REV_AT_EPOCH": 7287, "BSTAR": 0.0001704499, "MEAN_MOTION_DOT": 8.33e-06, "MEAN_MOTION_DDOT": 0}, "tle": {"line1": "1 28890U 05043A   25343.28191339  .00000833  00000+0  17045-3 0  9995", "line2": "2 28890  98.2657 110.7806 0015133 151.7147 208.4880 14.63361561 72878"}}, "geometry": {"type": "Point", "coordinates": [114.324711639057, -21.04007770870862]}}, {"type": "Feature", "properties": {"norad_id": 33320, "name": "HUANJING 1A (HJ-1A)", "group": "dmc", "lat": 37.45788621147514, "lon": 157.96190586408406, "alt_km": 617.9520825245008, "timestamp": "2025-12-09T14:52:25.832589+00:00", "meta": {"OBJECT_NAME": "HUANJING 1A (HJ-1A)", "OBJECT_ID": "2008-041A", "EPOCH": "2025-12-09T06:08:33.808704", "MEAN_MOTION": 14.83377186, "ECCENTRICITY": 0.00203673, "INCLINATION": 97.654, "RA_OF_ASC_NODE": 331.6995, "ARG_OF_PERICENTER": 45.2605, "MEAN_ANOMALY": 315.0263, "EPHEMERIS_TYPE": 0, "CLASSIFICATION_TYPE": "U", "NORAD_CAT_ID": 33320, "ELEMENT_SET_NO": 999, "REV_AT_EPOCH": 93024, "BSTAR": 0.00033463832, "MEAN_MOTION_DOT": 2.703e-05, "MEAN_MOTION_DDOT": 0}, "tle": {"line1": "1 33320U 08041A   25343.25594686  .00002703  00000+0  33464-3 0  9990", "line2": "2 33320  97.6540 331.6995 0020367  45.2605 315.0263 14.83377186930246"}}, "geometry": {"type": "Point", "coordinates": [157.96190586408406, 37.45788621147514]}}, {"type": "Feature", "properties": {"norad_id": 33321, "name": "HUANJING 1B (HJ-1B)", "group": "dmc", "lat": 8.729370152226945, "lon": -25.427417875114028, "alt_km": 615.9690109258481, "timestamp": "2025-12-09T14:52:25.832604+00:00", "meta": {"OBJECT_NAME": "HUANJING 1B (HJ-1B)", "OBJECT_ID": "2008-041B", "EPOCH": "2025-12-09T06:44:11.611680", "MEAN_MOTION": 14.82808501, "ECCENTRICITY": 0.00382619, "INCLINATION": 97.6397, "RA_OF_ASC_NODE": 335.4295, "ARG_OF_PERICENTER": 86.5932, "MEAN_ANOMALY": 273.9657, "EPHEMERIS_TYPE": 0, "CLASSIFICATION_TYPE": "U", "NORAD_CAT_ID": 33321, "ELEMENT_SET_NO": 999, "REV_AT_EPOCH": 93026, "BSTAR": 0.00030095756, "MEAN_MOTION_DOT": 2.414e-05, "MEAN_MOTION_DDOT": 0}, "tle": {"line1": "1 33321U 08041B   25343.28068995  .00002414  00000+0  30096-3 0  9990", "line2": "2 33321  97.6397 335.4295 0038261  86.5932 273.9657 14.82808501930265"}}, "geometry": {"type": "Point", "coordinates": [-25.427417875114028, 8.729370152226945]}}, {"type": "Feature", "properties": {"norad_id": 33446, "name": "YAOGAN-4", "group": "dmc", "lat": -75.38874937799697, "lon": -53.98393647105974, "alt_km": 622.195973024237, "timestamp": "2025-12-09T14:52:25.832616+00:00", "meta": {"OBJECT_NAME": "YAOGAN-4", "OBJECT_ID": "2008-061A", "EPOCH": "2025-12-09T07:07:28.002432", "MEAN_MOTION": 14.82666442, "ECCENTRICITY": 0.00138766, "INCLINATION": 97.9178, "RA_OF_ASC_NODE": 273.4298, "ARG_OF_PERICENTER": 334.9799, "MEAN_ANOMALY": 25.074, "EPHEMERIS_TYPE": 0, "CLASSIFICATION_TYPE": "U", "NORAD_CAT_ID": 33446, "ELEMENT_SET_NO": 999, "REV_AT_EPOCH": 91752, "BSTAR": 0.00035478857, "MEAN_MOTION_DOT": 2.811e-05, "MEAN_MOTION_DDOT": 0}, "tle": {"line1": "1 33446U 08061A   25343.29685188  .00002811  00000+0  35479-3 0  9991", "line2": "2 33446  97.9178 273.4298 0013876 334.9799  25.0740 14.82666442917522"}}, "geometry": {"type": "Point", "coordinates": [-53.98393647105974, -75.38874937799697]}}, {"type": "Feature", "properties": {"norad_id": 35681, "name": "DEIMOS-1", "group": "dmc", "lat": 40.44353455367202, "lon": -28.99701443428092, "alt_km": 641.0914498947723, "timestamp": "2025-12-09T14:52:25.832627+00:00", "meta": {"OBJECT_NAME": "DEIMOS-1", "OBJECT_ID": "2009-041A", "EPOCH": "2025-12-09T07:43:59.514240", "MEAN_MOTION": 14.74943916, "ECCENTRICITY": 0.00027192, "INCLINATION": 97.7146, "RA_OF_ASC_NODE": 144.0844, "ARG_OF_PERICENTER": 84.6164, "MEAN_ANOMALY": 275.5356, "EPHEMERIS_TYPE": 0, "CLASSIFICATION_TYPE": "U", "NORAD_CAT_ID": 35681, "ELEMENT_SET_NO": 999, "REV_AT_EPOCH": 87889, "BSTAR": 0.00015478183, "MEAN_MOTION_DOT": 9.92e-06, "MEAN_MOTION_DDOT": 0}, "tle": {"line1": "1 35681U 09041A   25343.32221660  .00000992  00000+0  15478-3 0  9993", "line2": "2 35681  97.7146 144.0844 0002719  84.6164 275.5356 14.74943916878893"}}, "geometry": {"type": "Point", "coordinates": [-28.99701443428092, 40.44353455367202]}}, {"type": "Feature", "properties": {"norad_id": 35683, "name": "UK-DMC 2", "group": "dmc", "lat": 33.002264771124125, "lon": -56.24459059314792, "alt_km": 640.5960206265954, "timestamp": "2025-12-09T14:52:25.832638+00:00", "meta": {"OBJECT_NAME": "UK-DMC 2", "OBJECT_ID": "2009-041C", "EPOCH": "2025-12-09T07:42:08.189568", "MEAN_MOTION": 14.75608575, "ECCENTRICITY": 0.00013719, "INCLINATION": 97.8564, "RA_OF_ASC_NODE": 118.3201, "ARG_OF_PERICENTER": 98.7757, "MEAN_ANOMALY": 261.3608, "EPHEMERIS_TYPE": 0, "CLASSIFICATION_TYPE": "U", "NORAD_CAT_ID": 35683, "ELEMENT_SET_NO": 999, "REV_AT_EPOCH": 87856, "BSTAR": 0.00017162661, "MEAN_MOTION_DOT": 1.122e-05, "MEAN_MOTION_DDOT": 0}, "tle": {"line1": "1 35683U 09041C   25343.32092812  .00001122  00000+0  17163-3 0  9999", "line2": "2 35683  97.8564 118.3201 0001371  98.7757 261.3608 14.75608575878565"}}, "geometry": {"type": "Point", "coordinates": [-56.24459059314792, 33.002264771124125]}}, {"type": "Feature", "properties": {"norad_id": 40715, "name": "DMC3-FM1", "group": "dmc", "lat": 81.09592130493428, "lon": 151.60137869802801, "alt_km": 606.0613368918794, "timestamp": "2025-12-09T14:52:25.832648+00:00", "meta": {"OBJECT_NAME": "DMC3-FM1", "OBJECT_ID": "2015-032A", "EPOCH": "2025-12-09T06:24:25.972992", "MEAN_MOTION": 14.85432105, "ECCENTRICITY": 0.00048921, "INCLINATION": 97.669, "RA_OF_ASC_NODE": 210.5856, "ARG_OF_PERICENTER": 334.9849, "MEAN_ANOMALY": 25.1129, "EPHEMERIS_TYPE": 0, "CLASSIFICATION_TYPE": "U", "NORAD_CAT_ID": 40715, "ELEMENT_SET_NO": 999, "REV_AT_EPOCH": 56171, "BSTAR": 0.00019505584, "MEAN_MOTION_DOT": 1.63e-05, "MEAN_MOTION_DDOT": 0}, "tle": {"line1": "1 40715U 15032A   25343.26696728  .00001630  00000+0  19506-3 0  9994", "line2": "2 40715  97.6690 210.5856 0004892 334.9849  25.1129 14.85432105561719"}}, "geometry": {"type": "Point", "coordinates": [151.60137869802801, 81.09592130493428]}}, {"type": "Feature", "properties": {"norad_id": 40716, "name": "DMC3-FM2", "group": "dmc", "lat": -34.57376437996697, "lon": -142.30037255678172, "alt_km": 614.6660199582866, "timestamp": "2025-12-09T14:52:25.832659+00:00", "meta": {"OBJECT_NAME": "DMC3-FM2", "OBJECT_ID": "2015-032B", "EPOCH": "2025-12-09T06:56:49.886592", "MEAN_MOTION": 14.85432768, "ECCENTRICITY": 0.00056272, "INCLINATION": 97.6748, "RA_OF_ASC_NODE": 212.0488, "ARG_OF_PERICENTER": 339.5612, "MEAN_ANOMALY": 20.5378, "EPHEMERIS_TYPE": 0, "CLASSIFICATION_TYPE": "U", "NORAD_CAT_ID": 40716, "ELEMENT_SET_NO": 999, "REV_AT_EPOCH": 56171, "BSTAR": 0.00013062766, "MEAN_MOTION_DOT": 1.074e-05, "MEAN_MOTION_DDOT": 0}, "tle": {"line1": "1 40716U 15032B   25343.28946628  .00001074  00000+0  13063-3 0  9998", "line2": "2 40716  97.6748 212.0488 0005627 339.5612  20.5378 14.85432768561718"}}, "geometry": {"type": "Point", "coordinates": [-142.30037255678172, -34.57376437996697]}}, {"type": "Feature", "properties": {"norad_id": 40717, "name": "DMC3-FM3", "group": "dmc", "lat": -29.511394534676977, "lon": 29.61736091141827, "alt_km": 620.5040769584039, "timestamp": "2025-12-09T14:52:25.832670+00:00", "meta": {"OBJECT_NAME": "DMC3-FM3", "OBJECT_ID": "2015-032C", "EPOCH": "2025-12-09T05:50:56.081760", "MEAN_MOTION": 14.85420645, "ECCENTRICITY": 0.00050276, "INCLINATION": 97.6801, "RA_OF_ASC_NODE": 213.6353, "ARG_OF_PERICENTER": 341.4159, "MEAN_ANOMALY": 18.6872, "EPHEMERIS_TYPE": 0, "CLASSIFICATION_TYPE": "U", "NORAD_CAT_ID": 40717, "ELEMENT_SET_NO": 999, "REV_AT_EPOCH": 56171, "BSTAR": 6.1138536e-05, "MEAN_MOTION_DOT": 4.75e-06, "MEAN_MOTION_DDOT": 0}, "tle": {"line1": "1 40717U 15032C   25343.24370465  .00000475  00000+0  61139-4 0  9997", "line2": "2 40717  97.6801 213.6353 0005027 341.4159  18.6872 14.85420645561717"}}, "geometry": {"type": "Point", "coordinates": [29.61736091141827, -29.511394534676977]}}]}